OBJECT_NAME,OBJECT_ID,EPOCH,MEAN_MOTION,ECCENTRICITY,INCLINATION,RA_OF_ASC_NODE,ARG_OF_PERICENTER,MEAN_ANOMALY,EPHEMERIS_TYPE,CLASSIFICATION_TYPE,NORAD_CAT_ID,ELEMENT_SET_NO,REV_AT_EPOCH,BSTAR,MEAN_MOTION_DOT,MEAN_MOTION_DDOT
HOKUSHIN-1,1998-067YH,2026-07-06T08:03:56.762496,15.50705313,.00060862,51.6310,205.1886,296.8092,63.2274,0,U,69648,999,262,.43120651E-3,.24865E-3,0
STARLINK-37656,2026-143A,2026-07-07T02:00:03.000384,15.57978884,.0001354,97.2848,231.8797,90.3887,273.8244,0,U,69649,999,366,-.34887E-1,-.2296831E-1,0
STARLINK-37646,2026-143B,2026-07-07T02:00:03.000384,15.71700493,.0001764,97.2855,231.9768,73.1974,155.0360,0,U,69650,999,366,-.16275E-1,-.1829984E-1,0
STARLINK-37749,2026-143C,2026-07-07T04:01:39.008640,15.72326775,.0001211,97.2850,232.0690,309.4678,50.6479,0,U,69651,999,364,.10427E-1,.1541865E-1,0
STARLINK-37819,2026-143D,2026-07-07T02:00:03.000384,15.68652653,.0001827,97.2849,231.9624,85.8207,114.1368,0,U,69652,999,366,-.24981E-1,-.2480057E-1,0
STARLINK-37729,2026-143E,2026-07-07T02:00:03.000384,15.81832362,.0000465,97.2827,231.9980,139.2691,138.8335,0,U,69653,999,366,.66523E-3,.135449E-2,0
STARLINK-37838,2026-143F,2026-07-07T02:00:03.000384,15.76844029,.0001681,97.2842,231.9823,78.7554,168.4873,0,U,69654,999,366,-.15792E-1,-.2211558E-1,0
STARLINK-37884,2026-143G,2026-07-07T02:00:03.000384,15.64946747,.0001862,97.2851,231.9670,77.1784,135.1963,0,U,69655,999,366,-.29577E-1,-.2519855E-1,0
STARLINK-37876,2026-143H,2026-07-07T02:00:03.000384,15.75598897,.000161,97.2843,231.9917,83.4326,186.1907,0,U,69656,999,356,-.18274E-1,-.2391893E-1,0
STARLINK-37784,2026-143J,2026-07-07T02:00:03.000384,15.67285191,.0001765,97.2851,231.9703,82.8127,137.5123,0,U,69657,999,356,-.26626E-1,-.2496582E-1,0
STARLINK-37851,2026-143K,2026-07-07T02:18:17.100000,15.74182169,.0000346,97.2837,232.0140,113.7643,246.3658,0,U,69658,999,356,-.68933E-2,-.887367E-2,0
STARLINK-37229,2026-143L,2026-07-07T02:00:03.000384,15.71447482,.0001548,97.2850,231.9720,85.9665,138.0568,0,U,69659,999,360,-.23201E-1,-.2574376E-1,0
STARLINK-37556,2026-143M,2026-07-07T02:23:02.410080,15.81228052,.0023093,97.2835,232.0093,195.2951,164.7622,0,U,69660,999,357,.18853E-2,.391154E-2,0
STARLINK-37867,2026-143N,2026-07-07T02:00:03.000384,15.73032796,.0001472,97.2845,232.0025,76.3588,217.7624,0,U,69661,999,356,-.20772E-1,-.2425219E-1,0
STARLINK-37852,2026-143P,2026-07-07T02:00:03.000384,15.66249044,.0001767,97.2848,231.9619,87.1729,113.8219,0,U,69662,999,356,-.26908E-1,-.2428639E-1,0
STARLINK-37554,2026-143Q,2026-07-07T02:00:03.000384,15.69573893,.0001163,97.2849,231.9876,64.8596,196.9546,0,U,69663,999,360,-.60076E-2,-.654486E-2,0
STARLINK-37830,2026-143R,2026-07-07T02:00:03.000384,15.68575277,.0001584,97.2850,231.9726,91.0912,136.9472,0,U,69664,999,355,-.25233E-1,-.2494657E-1,0
STARLINK-37837,2026-143S,2026-07-07T02:00:03.000384,15.73422039,.0001714,97.2846,231.9931,77.0308,197.5338,0,U,69665,999,356,-.20686E-1,-.245175E-1,0
STARLINK-37943,2026-143T,2026-07-07T02:00:03.000384,15.65986274,.0001759,97.2854,231.9761,78.6555,149.9353,0,U,69666,999,356,-.27185E-1,-.2427884E-1,0
STARLINK-37941,2026-143U,2026-07-07T02:00:03.000384,15.70013599,.0001678,97.2850,231.9876,85.5670,174.6279,0,U,69667,999,356,-.18193E-1,-.1933506E-1,0
STARLINK-37930,2026-143V,2026-07-07T02:00:03.000384,15.67998474,.000148,97.2853,231.9846,81.3465,168.8987,0,U,69668,999,355,-.19196E-1,-.1883075E-1,0
STARLINK-37945,2026-143W,2026-07-07T02:00:03.000384,15.73989001,.0001496,97.2846,232.0019,94.4722,201.4000,0,U,69669,999,356,-.20672E-1,-.2501514E-1,0
STARLINK-37948,2026-143X,2026-07-07T02:00:03.000384,15.57221127,.0001993,97.2852,231.9722,69.9247,141.2076,0,U,69670,999,356,-.378E-1,-.2403751E-1,0
STARLINK-37949,2026-143Y,2026-07-07T02:00:03.000384,15.63395854,.0001577,97.2848,231.9933,72.6026,196.8272,0,U,69671,999,356,-.1205E-1,-.999213E-2,0
STARLINK-37946,2026-143Z,2026-07-07T02:00:03.000384,15.69971513,.00014,97.2844,232.0066,73.0712,228.4831,0,U,69672,999,356,-.23232E-1,-.2441204E-1,0
TJS-26A,2026-144A,2026-06-23T07:54:55.514880,2.27958502,.73145613,19.5157,324.7456,179.7910,181.1077,0,U,69674,999,2,.31526459E-3,.963E-4,-.166614E-6
CZ-7A R/B,2026-144B,2026-07-06T20:23:09.710016,2.49999774,.7166561,19.4687,318.9016,189.6498,140.4061,0,U,69675,999,35,.78531E-3,.61489E-2,.12801E-6
2026-132G,2026-132G,2026-06-27T03:19:26.058720,15.03894241,.00213411,97.6876,241.7399,253.6187,106.2693,0,U,69676,999,227,.61874088E-3,.8509E-4,0
STARLINK-38005,2026-145A,2026-07-07T01:05:03.624576,15.75302830,.0001372,97.2850,34.4793,64.3612,295.7794,0,U,69677,999,189,.18389E-2,.284899E-2,0
STARLINK-38009,2026-145B,2026-07-07T01:02:31.240896,15.75296104,.0001139,97.2849,34.4821,75.4534,284.6857,0,U,69678,999,189,.1793E-2,.277453E-2,0
