HOKUSHIN-1              
1 69648U 98067YH  26187.33607364  .00024865  00000+0  43121-3 0  9997
2 69648  51.6310 205.1886 0006086 296.8092  63.2274 15.50705313  2621
STARLINK-37656          
1 69649U 26143A   26188.08336806 -.02296831  00000+0 -34887-1 0  9992
2 69649  97.2848 231.8797 0001354  90.3887 273.8244 15.57978884  3666
STARLINK-37646          
1 69650U 26143B   26188.08336806 -.01829984  00000+0 -16275-1 0  9995
2 69650  97.2855 231.9768 0001764  73.1974 155.0360 15.71700493  3661
STARLINK-37749          
1 69651U 26143C   26188.16781260  .01541865  00000+0  10427-1 0  9993
2 69651  97.2850 232.0690 0001211 309.4678  50.6479 15.72326775  3643
STARLINK-37819          
1 69652U 26143D   26188.08336806 -.02480057  00000+0 -24981-1 0  9995
2 69652  97.2849 231.9624 0001827  85.8207 114.1368 15.68652653  3660
STARLINK-37729          
1 69653U 26143E   26188.08336806  .00135449  00000+0  66523-3 0  9994
2 69653  97.2827 231.9980 0000465 139.2691 138.8335 15.81832362  3669
STARLINK-37838          
1 69654U 26143F   26188.08336806 -.02211558  00000+0 -15792-1 0  9995
2 69654  97.2842 231.9823 0001681  78.7554 168.4873 15.76844029  3662
STARLINK-37884          
1 69655U 26143G   26188.08336806 -.02519855  00000+0 -29577-1 0  9993
2 69655  97.2851 231.9670 0001862  77.1784 135.1963 15.64946747  3660
STARLINK-37876          
1 69656U 26143H   26188.08336806 -.02391893  00000+0 -18274-1 0  9996
2 69656  97.2843 231.9917 0001610  83.4326 186.1907 15.75598897  3563
STARLINK-37784          
1 69657U 26143J   26188.08336806 -.02496582  00000+0 -26626-1 0  9998
2 69657  97.2851 231.9703 0001765  82.8127 137.5123 15.67285191  3560
STARLINK-37851          
1 69658U 26143K   26188.09603125 -.00887367  00000+0 -68933-2 0  9992
2 69658  97.2837 232.0140 0000346 113.7643 246.3658 15.74182169  3564
STARLINK-37229          
1 69659U 26143L   26188.08336806 -.02574376  00000+0 -23201-1 0  9994
2 69659  97.2850 231.9720 0001548  85.9665 138.0568 15.71447482  3602
STARLINK-37556          
1 69660U 26143M   26188.09933345  .00391154  00000+0  18853-2 0  9993
2 69660  97.2835 232.0093 0023093 195.2951 164.7622 15.81228052  3578
STARLINK-37867          
1 69661U 26143N   26188.08336806 -.02425219  00000+0 -20772-1 0  9998
2 69661  97.2845 232.0025 0001472  76.3588 217.7624 15.73032796  3566
STARLINK-37852          
1 69662U 26143P   26188.08336806 -.02428639  00000+0 -26908-1 0  9995
2 69662  97.2848 231.9619 0001767  87.1729 113.8219 15.66249044  3565
STARLINK-37554          
1 69663U 26143Q   26188.08336806 -.00654486  00000+0 -60076-2 0  9990
2 69663  97.2849 231.9876 0001163  64.8596 196.9546 15.69573893  3601
STARLINK-37830          
1 69664U 26143R   26188.08336806 -.02494657  00000+0 -25233-1 0  9990
2 69664  97.2850 231.9726 0001584  91.0912 136.9472 15.68575277  3552
STARLINK-37837          
1 69665U 26143S   26188.08336806 -.02451750  00000+0 -20686-1 0  9995
2 69665  97.2846 231.9931 0001714  77.0308 197.5338 15.73422039  3562
STARLINK-37943          
1 69666U 26143T   26188.08336806 -.02427884  00000+0 -27185-1 0  9998
2 69666  97.2854 231.9761 0001759  78.6555 149.9353 15.65986274  3568
STARLINK-37941          
1 69667U 26143U   26188.08336806 -.01933506  00000+0 -18193-1 0  9990
2 69667  97.2850 231.9876 0001678  85.5670 174.6279 15.70013599  3566
STARLINK-37930          
1 69668U 26143V   26188.08336806 -.01883075  00000+0 -19196-1 0  9990
2 69668  97.2853 231.9846 0001480  81.3465 168.8987 15.67998474  3554
STARLINK-37945          
1 69669U 26143W   26188.08336806 -.02501514  00000+0 -20672-1 0  9998
2 69669  97.2846 232.0019 0001496  94.4722 201.4000 15.73989001  3563
STARLINK-37948          
1 69670U 26143X   26188.08336806 -.02403751  00000+0 -37800-1 0  9995
2 69670  97.2852 231.9722 0001993  69.9247 141.2076 15.57221127  3566
STARLINK-37949          
1 69671U 26143Y   26188.08336806 -.00999213  00000+0 -12050-1 0  9997
2 69671  97.2848 231.9933 0001577  72.6026 196.8272 15.63395854  3560
STARLINK-37946          
1 69672U 26143Z   26188.08336806 -.02441204  00000+0 -23232-1 0  9996
2 69672  97.2844 232.0066 0001400  73.0712 228.4831 15.69971513  3569
TJS-26A                 
1 69674U 26144A   26174.32980920  .00009630 -16661-6  31526-3 0  9997
2 69674  19.5157 324.7456 7314561 179.7910 181.1077  2.27958502    21
CZ-7A R/B               
1 69675U 26144B   26187.84941794  .00614890  12801-6  78531-3 0  9993
2 69675  19.4687 318.9016 7166561 189.6498 140.4061  2.49999774   359
2026-132G               
1 69676U 26132G   26178.13849605  .00008509  00000+0  61874-3 0  9998
2 69676  97.6876 241.7399 0021341 253.6187 106.2693 15.03894241  2272
STARLINK-38005          
1 69677U 26145A   26188.04518084  .00284899  00000+0  18389-2 0  9998
2 69677  97.2850  34.4793 0001372  64.3612 295.7794 15.75302830  1898
STARLINK-38009          
1 69678U 26145B   26188.04341714  .00277453  00000+0  17930-2 0  9992
2 69678  97.2849  34.4821 0001139  75.4534 284.6857 15.75296104  1899
